STARLINK-3294           
1 50829U 22001AC  26053.79503259 -.00000413  00000+0 -78386-5 0  9991
2 50829  53.2164 235.9875 0001669  91.8744 268.2440 15.08839692228156
STARLINK-3278           
1 50830U 22001AD  26053.81251149 -.00000518  00000+0 -14463-4 0  9995
2 50830  53.2159 245.9094 0001487  90.1208 269.9954 15.08837883228025
STARLINK-3299           
1 50831U 22001AE  26053.75825406  .00001227  00000+0  95206-4 0  9992
2 50831  53.2167 236.2183 0001344  92.8194 267.2952 15.08825482228157
STARLINK-3328           
1 50832U 22001AF  26053.81347384 -.00000965  00000+0 -42554-4 0  9992
2 50832  53.2153 245.9529 0001291  89.5310 270.5830 15.08844124228020
STARLINK-3331           
1 50834U 22001AH  26053.79779243  .00000178  00000+0  29271-4 0  9999
2 50834  53.2161 245.9805 0001459  89.4404 270.6755 15.08842139228017
STARLINK-3310           
1 50835U 22001AJ  26053.80149691 -.00001437  00000+0 -72236-4 0  9990
2 50835  53.2164 246.0741 0001493  93.6310 266.4853 15.08829286228013
STARLINK-3330           
1 50836U 22001AK  26053.71409406  .00001240  00000+0  95959-4 0  9991
2 50836  53.2165 246.1285 0001307  99.3156 260.7984 15.08846422227904
STARLINK-3318           
1 50837U 22001AL  26053.76192062 -.00000018  00000+0  16930-4 0  9999
2 50837  53.2156 236.1335 0001269  95.2336 264.8801 15.08835406228153
STARLINK-3320           
1 50839U 22001AN  26053.71315522  .00001047  00000+0  83876-4 0  9999
2 50839  53.2161 246.3543 0001207  95.9710 264.1420 15.08836237227994
STARLINK-3295           
1 50840U 22001AP  26053.70947406 -.00000340  00000+0 -32511-5 0  9990
2 50840  53.2162 246.3690 0001565 107.2818 252.8345 15.08835381227992
STARLINK-3300           
1 50841U 22001AQ  26053.78675193  .00000324  00000+0  38420-4 0  9994
2 50841  53.2160 246.0233 0001419  95.4983 264.6171 15.08841171228016
STARLINK-3302           
1 50842U 22001AR  26053.70579588  .00000623  00000+0  57212-4 0  9990
2 50842  53.2165 246.3883 0001397  95.7641 264.3511 15.08835539227997
STARLINK-3325           
1 50843U 22001AS  26053.83336806  .00583389  00000+0  15036-1 0  9999
2 50843  53.2180 242.3136 0001083  81.8162 137.3416 15.36678954  5790
STARLINK-3326           
1 50844U 22001AT  26053.69474999  .00000670  00000+0  60176-4 0  9995
2 50844  53.2167 246.4386 0001641  78.3738 281.7438 15.08838182228007
STARLINK-3230           
1 50845U 22001AU  26053.67266464 -.00002359  00000+0 -13011-3 0  9993
2 50845  53.2203 246.5303 0001451  97.6220 262.4937 15.08855319228009
STARLINK-3308           
1 50846U 22001AV  26053.83460822  .00000571  00000+0  53984-4 0  9992
2 50846  53.2155 245.9255 0001284  89.9508 270.1631 15.08835147228028
STARLINK-3315           
1 50848U 22001AX  26053.68739086 -.00000053  00000+0  14766-4 0  9999
2 50848  53.2171 246.4708 0001427  92.2908 267.8248 15.08836498228002
