[{"OBJECT_NAME":"STARLINK-3294","OBJECT_ID":"2022-001AC","EPOCH":"2026-02-22T19:04:50.815776","MEAN_MOTION":15.08839692,"ECCENTRICITY":0.0001669,"INCLINATION":53.2164,"RA_OF_ASC_NODE":235.9875,"ARG_OF_PERICENTER":91.8744,"MEAN_ANOMALY":268.244,"EPHEMERIS_TYPE":0,"CLASSIFICATION_TYPE":"U","NORAD_CAT_ID":50829,"ELEMENT_SET_NO":999,"REV_AT_EPOCH":22815,"BSTAR":-7.8386e-6,"MEAN_MOTION_DOT":-4.13e-6,"MEAN_MOTION_DDOT":0},{"OBJECT_NAME":"STARLINK-3278","OBJECT_ID":"2022-001AD","EPOCH":"2026-02-22T19:30:00.992736","MEAN_MOTION":15.08837883,"ECCENTRICITY":0.0001487,"INCLINATION":53.2159,"RA_OF_ASC_NODE":245.9094,"ARG_OF_PERICENTER":90.1208,"MEAN_ANOMALY":269.9954,"EPHEMERIS_TYPE":0,"CLASSIFICATION_TYPE":"U","NORAD_CAT_ID":50830,"ELEMENT_SET_NO":999,"REV_AT_EPOCH":22802,"BSTAR":-1.4463e-5,"MEAN_MOTION_DOT":-5.18e-6,"MEAN_MOTION_DDOT":0},{"OBJECT_NAME":"STARLINK-3299","OBJECT_ID":"2022-001AE","EPOCH":"2026-02-22T18:11:53.150784","MEAN_MOTION":15.08825482,"ECCENTRICITY":0.0001344,"INCLINATION":53.2167,"RA_OF_ASC_NODE":236.2183,"ARG_OF_PERICENTER":92.8194,"MEAN_ANOMALY":267.2952,"EPHEMERIS_TYPE":0,"CLASSIFICATION_TYPE":"U","NORAD_CAT_ID":50831,"ELEMENT_SET_NO":999,"REV_AT_EPOCH":22815,"BSTAR":9.5206e-5,"MEAN_MOTION_DOT":1.227e-5,"MEAN_MOTION_DDOT":0},{"OBJECT_NAME":"STARLINK-3328","OBJECT_ID":"2022-001AF","EPOCH":"2026-02-22T19:31:24.139776","MEAN_MOTION":15.08844124,"ECCENTRICITY":0.0001291,"INCLINATION":53.2153,"RA_OF_ASC_NODE":245.9529,"ARG_OF_PERICENTER":89.531,"MEAN_ANOMALY":270.583,"EPHEMERIS_TYPE":0,"CLASSIFICATION_TYPE":"U","NORAD_CAT_ID":50832,"ELEMENT_SET_NO":999,"REV_AT_EPOCH":22802,"BSTAR":-4.2554e-5,"MEAN_MOTION_DOT":-9.65e-6,"MEAN_MOTION_DDOT":0},{"OBJECT_NAME":"STARLINK-3331","OBJECT_ID":"2022-001AH","EPOCH":"2026-02-22T19:08:49.265952","MEAN_MOTION":15.08842139,"ECCENTRICITY":0.0001459,"INCLINATION":53.2161,"RA_OF_ASC_NODE":245.9805,"ARG_OF_PERICENTER":89.4404,"MEAN_ANOMALY":270.6755,"EPHEMERIS_TYPE":0,"CLASSIFICATION_TYPE":"U","NORAD_CAT_ID":50834,"ELEMENT_SET_NO":999,"REV_AT_EPOCH":22801,"BSTAR":2.9271e-5,"MEAN_MOTION_DOT":1.78e-6,"MEAN_MOTION_DDOT":0},{"OBJECT_NAME":"STARLINK-3310","OBJECT_ID":"2022-001AJ","EPOCH":"2026-02-22T19:14:09.333024","MEAN_MOTION":15.08829286,"ECCENTRICITY":0.0001493,"INCLINATION":53.2164,"RA_OF_ASC_NODE":246.0741,"ARG_OF_PERICENTER":93.631,"MEAN_ANOMALY":266.4853,"EPHEMERIS_TYPE":0,"CLASSIFICATION_TYPE":"U","NORAD_CAT_ID":50835,"ELEMENT_SET_NO":999,"REV_AT_EPOCH":22801,"BSTAR":-7.2236e-5,"MEAN_MOTION_DOT":-1.437e-5,"MEAN_MOTION_DDOT":0},{"OBJECT_NAME":"STARLINK-3330","OBJECT_ID":"2022-001AK","EPOCH":"2026-02-22T17:08:17.726784","MEAN_MOTION":15.08846422,"ECCENTRICITY":0.0001307,"INCLINATION":53.2165,"RA_OF_ASC_NODE":246.1285,"ARG_OF_PERICENTER":99.3156,"MEAN_ANOMALY":260.7984,"EPHEMERIS_TYPE":0,"CLASSIFICATION_TYPE":"U","NORAD_CAT_ID":50836,"ELEMENT_SET_NO":999,"REV_AT_EPOCH":22790,"BSTAR":9.5959e-5,"MEAN_MOTION_DOT":1.24e-5,"MEAN_MOTION_DDOT":0},{"OBJECT_NAME":"STARLINK-3318","OBJECT_ID":"2022-001AL","EPOCH":"2026-02-22T18:17:09.941568","MEAN_MOTION":15.08835406,"ECCENTRICITY":0.0001269,"INCLINATION":53.2156,"RA_OF_ASC_NODE":236.1335,"ARG_OF_PERICENTER":95.2336,"MEAN_ANOMALY":264.8801,"EPHEMERIS_TYPE":0,"CLASSIFICATION_TYPE":"U","NORAD_CAT_ID":50837,"ELEMENT_SET_NO":999,"REV_AT_EPOCH":22815,"BSTAR":1.693e-5,"MEAN_MOTION_DOT":-1.8e-7,"MEAN_MOTION_DDOT":0},{"OBJECT_NAME":"STARLINK-3320","OBJECT_ID":"2022-001AN","EPOCH":"2026-02-22T17:06:56.611008","MEAN_MOTION":15.08836237,"ECCENTRICITY":0.0001207,"INCLINATION":53.2161,"RA_OF_ASC_NODE":246.3543,"ARG_OF_PERICENTER":95.971,"MEAN_ANOMALY":264.142,"EPHEMERIS_TYPE":0,"CLASSIFICATION_TYPE":"U","NORAD_CAT_ID":50839,"ELEMENT_SET_NO":999,"REV_AT_EPOCH":22799,"BSTAR":8.3876e-5,"MEAN_MOTION_DOT":1.047e-5,"MEAN_MOTION_DDOT":0},{"OBJECT_NAME":"STARLINK-3295","OBJECT_ID":"2022-001AP","EPOCH":"2026-02-22T17:01:38.558784","MEAN_MOTION":15.08835381,"ECCENTRICITY":0.0001565,"INCLINATION":53.2162,"RA_OF_ASC_NODE":246.369,"ARG_OF_PERICENTER":107.2818,"MEAN_ANOMALY":252.8345,"EPHEMERIS_TYPE":0,"CLASSIFICATION_TYPE":"U","NORAD_CAT_ID":50840,"ELEMENT_SET_NO":999,"REV_AT_EPOCH":22799,"BSTAR":-3.2511e-6,"MEAN_MOTION_DOT":-3.4e-6,"MEAN_MOTION_DDOT":0},{"OBJECT_NAME":"STARLINK-3300","OBJECT_ID":"2022-001AQ","EPOCH":"2026-02-22T18:52:55.366752","MEAN_MOTION":15.08841171,"ECCENTRICITY":0.0001419,"INCLINATION":53.216,"RA_OF_ASC_NODE":246.0233,"ARG_OF_PERICENTER":95.4983,"MEAN_ANOMALY":264.6171,"EPHEMERIS_TYPE":0,"CLASSIFICATION_TYPE":"U","NORAD_CAT_ID":50841,"ELEMENT_SET_NO":999,"REV_AT_EPOCH":22801,"BSTAR":3.842e-5,"MEAN_MOTION_DOT":3.24e-6,"MEAN_MOTION_DDOT":0},{"OBJECT_NAME":"STARLINK-3302","OBJECT_ID":"2022-001AR","EPOCH":"2026-02-22T16:56:20.764032","MEAN_MOTION":15.08835539,"ECCENTRICITY":0.0001397,"INCLINATION":53.2165,"RA_OF_ASC_NODE":246.3883,"ARG_OF_PERICENTER":95.7641,"MEAN_ANOMALY":264.3511,"EPHEMERIS_TYPE":0,"CLASSIFICATION_TYPE":"U","NORAD_CAT_ID":50842,"ELEMENT_SET_NO":999,"REV_AT_EPOCH":22799,"BSTAR":5.7212e-5,"MEAN_MOTION_DOT":6.23e-6,"MEAN_MOTION_DDOT":0},{"OBJECT_NAME":"STARLINK-3325","OBJECT_ID":"2022-001AS","EPOCH":"2026-02-22T20:00:03.000384","MEAN_MOTION":15.36678954,"ECCENTRICITY":0.0001083,"INCLINATION":53.218,"RA_OF_ASC_NODE":242.3136,"ARG_OF_PERICENTER":81.8162,"MEAN_ANOMALY":137.3416,"EPHEMERIS_TYPE":0,"CLASSIFICATION_TYPE":"U","NORAD_CAT_ID":50843,"ELEMENT_SET_NO":999,"REV_AT_EPOCH":579,"BSTAR":0.015036,"MEAN_MOTION_DOT":0.00583389,"MEAN_MOTION_DDOT":0},{"OBJECT_NAME":"STARLINK-3326","OBJECT_ID":"2022-001AT","EPOCH":"2026-02-22T16:40:26.399136","MEAN_MOTION":15.08838182,"ECCENTRICITY":0.0001641,"INCLINATION":53.2167,"RA_OF_ASC_NODE":246.4386,"ARG_OF_PERICENTER":78.3738,"MEAN_ANOMALY":281.7438,"EPHEMERIS_TYPE":0,"CLASSIFICATION_TYPE":"U","NORAD_CAT_ID":50844,"ELEMENT_SET_NO":999,"REV_AT_EPOCH":22800,"BSTAR":6.0176e-5,"MEAN_MOTION_DOT":6.7e-6,"MEAN_MOTION_DDOT":0},{"OBJECT_NAME":"STARLINK-3230","OBJECT_ID":"2022-001AU","EPOCH":"2026-02-22T16:08:38.224896","MEAN_MOTION":15.08855319,"ECCENTRICITY":0.0001451,"INCLINATION":53.2203,"RA_OF_ASC_NODE":246.5303,"ARG_OF_PERICENTER":97.622,"MEAN_ANOMALY":262.4937,"EPHEMERIS_TYPE":0,"CLASSIFICATION_TYPE":"U","NORAD_CAT_ID":50845,"ELEMENT_SET_NO":999,"REV_AT_EPOCH":22800,"BSTAR":-0.00013011,"MEAN_MOTION_DOT":-2.359e-5,"MEAN_MOTION_DDOT":0},{"OBJECT_NAME":"STARLINK-3308","OBJECT_ID":"2022-001AV","EPOCH":"2026-02-22T20:01:50.150208","MEAN_MOTION":15.08835147,"ECCENTRICITY":0.0001284,"INCLINATION":53.2155,"RA_OF_ASC_NODE":245.9255,"ARG_OF_PERICENTER":89.9508,"MEAN_ANOMALY":270.1631,"EPHEMERIS_TYPE":0,"CLASSIFICATION_TYPE":"U","NORAD_CAT_ID":50846,"ELEMENT_SET_NO":999,"REV_AT_EPOCH":22802,"BSTAR":5.3984e-5,"MEAN_MOTION_DOT":5.71e-6,"MEAN_MOTION_DDOT":0},{"OBJECT_NAME":"STARLINK-3315","OBJECT_ID":"2022-001AX","EPOCH":"2026-02-22T16:29:50.570304","MEAN_MOTION":15.08836498,"ECCENTRICITY":0.0001427,"INCLINATION":53.2171,"RA_OF_ASC_NODE":246.4708,"ARG_OF_PERICENTER":92.2908,"MEAN_ANOMALY":267.8248,"EPHEMERIS_TYPE":0,"CLASSIFICATION_TYPE":"U","NORAD_CAT_ID":50848,"ELEMENT_SET_NO":999,"REV_AT_EPOCH":22800,"BSTAR":1.4766e-5,"MEAN_MOTION_DOT":-5.3e-7,"MEAN_MOTION_DDOT":0}]
